{"type": "FeatureCollection", "features": [ {"type": "Feature", "properties": {"norad_id": 40938, "name": "BEIDOU-3S IGSO-2S (C56)", "group": "gnss", "lat": 30.9736189169817, "lon": 50.244591139187364, "alt_km": 35619.45669985248, "timestamp": "2025-12-10T14:53:37.338621+00:00", "meta": {"OBJECT_NAME": "BEIDOU-3S IGSO-2S (C56)", "OBJECT_ID": "2015-053A", "EPOCH": "2025-12-09T17:40:38.610336", "MEAN_MOTION": 1.00270089, "ECCENTRICITY": 0.00610607, "INCLINATION": 49.5164, "RA_OF_ASC_NODE": 261.0407, "ARG_OF_PERICENTER": 188.3574, "MEAN_ANOMALY": 350.535, "EPHEMERIS_TYPE": 0, "CLASSIFICATION_TYPE": "U", "NORAD_CAT_ID": 40938, "ELEMENT_SET_NO": 999, "REV_AT_EPOCH": 3745, "BSTAR": 0, "MEAN_MOTION_DOT": -1.49e-06, "MEAN_MOTION_DDOT": 0}, "tle": {"line1": "1 40938U 15053A   25343.73655799 -.00000149  00000+0  00000+0 0  9999", "line2": "2 40938  49.5164 261.0407 0061060 188.3574 350.5350  1.00270089 37451"}}, "geometry": {"type": "Point", "coordinates": [50.244591139187364, 30.9736189169817]}}, {"type": "Feature", "properties": {"norad_id": 41019, "name": "GPS BIIF-11 (PRN 10)", "group": "gnss", "lat": -31.000745803297995, "lon": -118.77872456311574, "alt_km": 19897.486615102687, "timestamp": "2025-12-10T14:53:37.338631+00:00", "meta": {"OBJECT_NAME": "GPS BIIF-11 (PRN 10)", "OBJECT_ID": "2015-062A", "EPOCH": "2025-12-09T07:40:39.423936", "MEAN_MOTION": 2.00567031, "ECCENTRICITY": 0.0110732, "INCLINATION": 56.8297, "RA_OF_ASC_NODE": 38.1346, "ARG_OF_PERICENTER": 229.8556, "MEAN_ANOMALY": 129.2222, "EPHEMERIS_TYPE": 0, "CLASSIFICATION_TYPE": "U", "NORAD_CAT_ID": 41019, "ELEMENT_SET_NO": 999, "REV_AT_EPOCH": 7402, "BSTAR": 0, "MEAN_MOTION_DOT": -8.3e-07, "MEAN_MOTION_DDOT": 0}, "tle": {"line1": "1 41019U 15062A   25343.31990074 -.00000083  00000+0  00000+0 0  9999", "line2": "2 41019  56.8297  38.1346 0110732 229.8556 129.2222  2.00567031 74027"}}, "geometry": {"type": "Point", "coordinates": [-118.77872456311574, -31.000745803297995]}}, {"type": "Feature", "properties": {"norad_id": 41028, "name": "GSAT-15 (GAGAN/PRN 139)", "group": "gnss", "lat": 0.03306388010330799, "lon": 36.50691451280438, "alt_km": 35797.853002426185, "timestamp": "2025-12-10T14:53:37.338642+00:00", "meta": {"OBJECT_NAME": "GSAT-15 (GAGAN/PRN 139)", "OBJECT_ID": "2015-065A", "EPOCH": "2025-12-10T02:19:38.705664", "MEAN_MOTION": 1.00272236, "ECCENTRICITY": 0.00029453, "INCLINATION": 0.0189, "RA_OF_ASC_NODE": 306.4282, "ARG_OF_PERICENTER": 287.7645, "MEAN_ANOMALY": 333.296, "EPHEMERIS_TYPE": 0, "CLASSIFICATION_TYPE": "U", "NORAD_CAT_ID": 41028, "ELEMENT_SET_NO": 999, "REV_AT_EPOCH": 3690, "BSTAR": 0, "MEAN_MOTION_DOT": -2.55e-06, "MEAN_MOTION_DDOT": 0}, "tle": {"line1": "1 41028U 15065A   25344.09697576 -.00000255  00000+0  00000+0 0  9990", "line2": "2 41028   0.0189 306.4282 0002945 287.7645 333.2960  1.00272236 36906"}}, "geometry": {"type": "Point", "coordinates": [36.50691451280438, 0.03306388010330799]}}, {"type": "Feature", "properties": {"norad_id": 41174, "name": "GSAT0209 (GALILEO 12)", "group": "gnss", "lat": -53.502171180826544, "lon": 39.31885079937223, "alt_km": 23225.57683675187, "timestamp": "2025-12-10T14:53:37.338653+00:00", "meta": {"OBJECT_NAME": "GSAT0209 (GALILEO 12)", "OBJECT_ID": "2015-079A", "EPOCH": "2025-12-08T09:34:38.512704", "MEAN_MOTION": 1.70474355, "ECCENTRICITY": 0.00023972, "INCLINATION": 55.7104, "RA_OF_ASC_NODE": 106.5001, "ARG_OF_PERICENTER": 353.8677, "MEAN_ANOMALY": 6.0907, "EPHEMERIS_TYPE": 0, "CLASSIFICATION_TYPE": "U", "NORAD_CAT_ID": 41174, "ELEMENT_SET_NO": 999, "REV_AT_EPOCH": 6152, "BSTAR": 0, "MEAN_MOTION_DOT": 1e-07, "MEAN_MOTION_DDOT": 0}, "tle": {"line1": "1 41174U 15079A   25342.39905686  .00000010  00000+0  00000+0 0  9990", "line2": "2 41174  55.7104 106.5001 0002397 353.8677   6.0907  1.70474355 61526"}}, "geometry": {"type": "Point", "coordinates": [39.31885079937223, -53.502171180826544]}}, {"type": "Feature", "properties": {"norad_id": 41175, "name": "GSAT0208 (GALILEO 11)", "group": "gnss", "lat": 25.711365822326712, "lon": -92.73556901123098, "alt_km": 23223.57438725349, "timestamp": "2025-12-10T14:53:37.338663+00:00", "meta": {"OBJECT_NAME": "GSAT0208 (GALILEO 11)", "OBJECT_ID": "2015-079B", "EPOCH": "2025-12-08T14:51:40.201056", "MEAN_MOTION": 1.70474231, "ECCENTRICITY": 0.0001859, "INCLINATION": 55.7088, "RA_OF_ASC_NODE": 106.4912, "ARG_OF_PERICENTER": 3.1611, "MEAN_ANOMALY": 356.8026, "EPHEMERIS_TYPE": 0, "CLASSIFICATION_TYPE": "U", "NORAD_CAT_ID": 41175, "ELEMENT_SET_NO": 999, "REV_AT_EPOCH": 6194, "BSTAR": 0, "MEAN_MOTION_DOT": 1e-07, "MEAN_MOTION_DDOT": 0}, "tle": {"line1": "1 41175U 15079B   25342.61921529  .00000010  00000+0  00000+0 0  9990", "line2": "2 41175  55.7088 106.4912 0001859   3.1611 356.8026  1.70474231 61940"}}, "geometry": {"type": "Point", "coordinates": [-92.73556901123098, 25.711365822326712]}}, {"type": "Feature", "properties": {"norad_id": 41241, "name": "IRNSS-1E", "group": "gnss", "lat": -4.128079982264954, "lon": 56.06929804112899, "alt_km": 35875.59339988978, "timestamp": "2025-12-10T14:53:37.338673+00:00", "meta": {"OBJECT_NAME": "IRNSS-1E", "OBJECT_ID": "2016-003A", "EPOCH": "2025-12-08T15:50:39.371424", "MEAN_MOTION": 1.00275569, "ECCENTRICITY": 0.00218793, "INCLINATION": 32.8166, "RA_OF_ASC_NODE": 62.5131, "ARG_OF_PERICENTER": 186.973, "MEAN_ANOMALY": 177.6191, "EPHEMERIS_TYPE": 0, "CLASSIFICATION_TYPE": "U", "NORAD_CAT_ID": 41241, "ELEMENT_SET_NO": 999, "REV_AT_EPOCH": 3617, "BSTAR": 0, "MEAN_MOTION_DOT": -3.11e-06, "MEAN_MOTION_DDOT": 0}, "tle": {"line1": "1 41241U 16003A   25342.66017791 -.00000311  00000+0  00000+0 0  9999", "line2": "2 41241  32.8166  62.5131 0021879 186.9730 177.6191  1.00275569 36173"}}, "geometry": {"type": "Point", "coordinates": [56.06929804112899, -4.128079982264954]}}, {"type": "Feature", "properties": {"norad_id": 41328, "name": "GPS BIIF-12 (PRN 32)", "group": "gnss", "lat": 18.228082859319684, "lon": -96.18700653638848, "alt_km": 20160.26262223195, "timestamp": "2025-12-10T14:53:37.338722+00:00", "meta": {"OBJECT_NAME": "GPS BIIF-12 (PRN 32)", "OBJECT_ID": "2016-007A", "EPOCH": "2025-12-09T09:39:21.792384", "MEAN_MOTION": 2.00560837, "ECCENTRICITY": 0.00919989, "INCLINATION": 55.4044, "RA_OF_ASC_NODE": 96.9895, "ARG_OF_PERICENTER": 243.4939, "MEAN_ANOMALY": 115.5474, "EPHEMERIS_TYPE": 0, "CLASSIFICATION_TYPE": "U", "NORAD_CAT_ID": 41328, "ELEMENT_SET_NO": 999, "REV_AT_EPOCH": 7203, "BSTAR": 0, "MEAN_MOTION_DOT": 4e-08, "MEAN_MOTION_DDOT": 0}, "tle": {"line1": "1 41328U 16007A   25343.40233556  .00000004  00000+0  00000+0 0  9999", "line2": "2 41328  55.4044  96.9895 0091998 243.4939 115.5474  2.00560837 72038"}}, "geometry": {"type": "Point", "coordinates": [-96.18700653638848, 18.228082859319684]}}, {"type": "Feature", "properties": {"norad_id": 41330, "name": "COSMOS 2514 (751)", "group": "gnss", "lat": -15.192607171682152, "lon": -47.76695576155947, "alt_km": 19149.274696100987, "timestamp": "2025-12-10T14:53:37.338734+00:00", "meta": {"OBJECT_NAME": "COSMOS 2514 (751)", "OBJECT_ID": "2016-008A", "EPOCH": "2025-12-10T04:09:27.217152", "MEAN_MOTION": 2.13102572, "ECCENTRICITY": 0.00121966, "INCLINATION": 65.1353, "RA_OF_ASC_NODE": 319.4918, "ARG_OF_PERICENTER": 220.0504, "MEAN_ANOMALY": 139.8574, "EPHEMERIS_TYPE": 0, "CLASSIFICATION_TYPE": "U", "NORAD_CAT_ID": 41330, "ELEMENT_SET_NO": 999, "REV_AT_EPOCH": 7659, "BSTAR": 0, "MEAN_MOTION_DOT": -5e-07, "MEAN_MOTION_DDOT": 0}, "tle": {"line1": "1 41330U 16008A   25344.17323168 -.00000050  00000+0  00000+0 0  9999", "line2": "2 41330  65.1353 319.4918 0012196 220.0504 139.8574  2.13102572 76590"}}, "geometry": {"type": "Point", "coordinates": [-47.76695576155947, -15.192607171682152]}}, {"type": "Feature", "properties": {"norad_id": 41384, "name": "IRNSS-1F", "group": "gnss", "lat": -3.9589450654823155, "lon": -24.526475139593042, "alt_km": 35730.69311276629, "timestamp": "2025-12-10T14:53:37.338744+00:00", "meta": {"OBJECT_NAME": "IRNSS-1F", "OBJECT_ID": "2016-015A", "EPOCH": "2025-12-09T20:34:38.146944", "MEAN_MOTION": 1.00270992, "ECCENTRICITY": 0.0022506, "INCLINATION": 4.8733, "RA_OF_ASC_NODE": 101.3714, "ARG_OF_PERICENTER": 180.3109, "MEAN_ANOMALY": 138.1786, "EPHEMERIS_TYPE": 0, "CLASSIFICATION_TYPE": "U", "NORAD_CAT_ID": 41384, "ELEMENT_SET_NO": 999, "REV_AT_EPOCH": 3576, "BSTAR": 0, "MEAN_MOTION_DOT": 1.61e-06, "MEAN_MOTION_DDOT": 0}, "tle": {"line1": "1 41384U 16015A   25343.85738596  .00000161  00000+0  00000+0 0  9997", "line2": "2 41384   4.8733 101.3714 0022506 180.3109 138.1786  1.00270992 35766"}}, "geometry": {"type": "Point", "coordinates": [-24.526475139593042, -3.9589450654823155]}}, {"type": "Feature", "properties": {"norad_id": 41434, "name": "BEIDOU-2 IGSO-6 (C13)", "group": "gnss", "lat": -3.1234782981332923, "lon": 38.14517121369168, "alt_km": 35935.17864985579, "timestamp": "2025-12-10T14:53:37.338755+00:00", "meta": {"OBJECT_NAME": "BEIDOU-2 IGSO-6 (C13)", "OBJECT_ID": "2016-021A", "EPOCH": "2025-12-03T15:53:57.382080", "MEAN_MOTION": 1.00293531, "ECCENTRICITY": 0.00596341, "INCLINATION": 59.9536, "RA_OF_ASC_NODE": 39.991, "ARG_OF_PERICENTER": 228.541, "MEAN_ANOMALY": 135.1173, "EPHEMERIS_TYPE": 0, "CLASSIFICATION_TYPE": "U", "NORAD_CAT_ID": 41434, "ELEMENT_SET_NO": 999, "REV_AT_EPOCH": 3552, "BSTAR": 0, "MEAN_MOTION_DOT": -1.61e-06, "MEAN_MOTION_DDOT": 0}, "tle": {"line1": "1 41434U 16021A   25337.66246970 -.00000161  00000+0  00000+0 0  9993", "line2": "2 41434  59.9536  39.9910 0059634 228.5410 135.1173  1.00293531 35525"}}, "geometry": {"type": "Point", "coordinates": [38.14517121369168, -3.1234782981332923]}}]}